[{"OBJECT_NAME":"TIANHUI 6B","OBJECT_ID":"2023-030D","EPOCH":"2026-03-09T23:26:56.388192","MEAN_MOTION":14.01332355,"ECCENTRICITY":0.00011349,"INCLINATION":99.0142,"RA_OF_ASC_NODE":78.4435,"ARG_OF_PERICENTER":126.6393,"MEAN_ANOMALY":233.4876,"EPHEMERIS_TYPE":0,"CLASSIFICATION_TYPE":"U","NORAD_CAT_ID":55839,"ELEMENT_SET_NO":999,"REV_AT_EPOCH":15349,"BSTAR":-9.0839833e-5,"MEAN_MOTION_DOT":-1.81e-6,"MEAN_MOTION_DDOT":0},{"OBJECT_NAME":"COSMOS 1275 DEB","OBJECT_ID":"1981-053MW","EPOCH":"2026-02-28T00:59:01.242240","MEAN_MOTION":13.9083041,"ECCENTRICITY":0.00580563,"INCLINATION":83.1485,"RA_OF_ASC_NODE":280.2153,"ARG_OF_PERICENTER":139.6636,"MEAN_ANOMALY":220.8858,"EPHEMERIS_TYPE":0,"CLASSIFICATION_TYPE":"U","NORAD_CAT_ID":39936,"ELEMENT_SET_NO":999,"REV_AT_EPOCH":58348,"BSTAR":0.00085166799,"MEAN_MOTION_DOT":1.096e-5,"MEAN_MOTION_DDOT":0}]
